{"type": "FeatureCollection", "features": [ {"type": "Feature", "properties": {"norad_id": 42987, "name": "SKYSAT-C11", "group": "resource", "lat": 5.940071388822149, "lon": 137.71074314748014, "alt_km": 424.70780514498074, "timestamp": "2025-12-26T15:29:39.095830+00:00", "meta": {"OBJECT_NAME": "SKYSAT-C11", "OBJECT_ID": "2017-068A", "EPOCH": "2025-12-26T07:42:41.705856", "MEAN_MOTION": 15.48035151, "ECCENTRICITY": 0.00011385, "INCLINATION": 97.4151, "RA_OF_ASC_NODE": 138.1546, "ARG_OF_PERICENTER": 94.0685, "MEAN_ANOMALY": 266.0696, "EPHEMERIS_TYPE": 0, "CLASSIFICATION_TYPE": "U", "NORAD_CAT_ID": 42987, "ELEMENT_SET_NO": 999, "REV_AT_EPOCH": 45641, "BSTAR": 0.00042677634, "MEAN_MOTION_DOT": 0.00022269, "MEAN_MOTION_DDOT": 0}, "tle": {"line1": "1 42987U 17068A   25360.32131604  .00022269  00000+0  42678-3 0  9998", "line2": "2 42987  97.4151 138.1546 0001138  94.0685 266.0696 15.48035151456410"}}, "geometry": {"type": "Point", "coordinates": [137.71074314748014, 5.940071388822149]}}, {"type": "Feature", "properties": {"norad_id": 42988, "name": "SKYSAT-C10", "group": "resource", "lat": 27.52105301932038, "lon": 127.63914320172312, "alt_km": 466.21975198344626, "timestamp": "2025-12-26T15:29:39.095840+00:00", "meta": {"OBJECT_NAME": "SKYSAT-C10", "OBJECT_ID": "2017-068B", "EPOCH": "2025-12-24T19:29:00.783168", "MEAN_MOTION": 15.32071049, "ECCENTRICITY": 0.00043105, "INCLINATION": 97.4272, "RA_OF_ASC_NODE": 129.6977, "ARG_OF_PERICENTER": 75.127, "MEAN_ANOMALY": 285.0448, "EPHEMERIS_TYPE": 0, "CLASSIFICATION_TYPE": "U", "NORAD_CAT_ID": 42988, "ELEMENT_SET_NO": 999, "REV_AT_EPOCH": 45564, "BSTAR": 0.00040464637, "MEAN_MOTION_DOT": 0.00012461, "MEAN_MOTION_DDOT": 0}, "tle": {"line1": "1 42988U 17068B   25358.81181462  .00012461  00000+0  40465-3 0  9992", "line2": "2 42988  97.4272 129.6977 0004310  75.1270 285.0448 15.32071049455642"}}, "geometry": {"type": "Point", "coordinates": [127.63914320172312, 27.52105301932038]}}, {"type": "Feature", "properties": {"norad_id": 42989, "name": "SKYSAT-C9", "group": "resource", "lat": 76.4423595065598, "lon": 98.3018339055361, "alt_km": 443.89976469053545, "timestamp": "2025-12-26T15:29:39.095850+00:00", "meta": {"OBJECT_NAME": "SKYSAT-C9", "OBJECT_ID": "2017-068C", "EPOCH": "2025-12-26T07:20:18.110688", "MEAN_MOTION": 15.36393456, "ECCENTRICITY": 0.00101874, "INCLINATION": 97.4193, "RA_OF_ASC_NODE": 130.6696, "ARG_OF_PERICENTER": 44.147, "MEAN_ANOMALY": 316.0585, "EPHEMERIS_TYPE": 0, "CLASSIFICATION_TYPE": "U", "NORAD_CAT_ID": 42989, "ELEMENT_SET_NO": 999, "REV_AT_EPOCH": 45616, "BSTAR": 0.00038879754, "MEAN_MOTION_DOT": 0.0001375, "MEAN_MOTION_DDOT": 0}, "tle": {"line1": "1 42989U 17068C   25360.30576517  .00013750  00000+0  38880-3 0  9999", "line2": "2 42989  97.4193 130.6696 0010187  44.1470 316.0585 15.36393456456160"}}, "geometry": {"type": "Point", "coordinates": [98.3018339055361, 76.4423595065598]}}, {"type": "Feature", "properties": {"norad_id": 42990, "name": "SKYSAT-C8", "group": "resource", "lat": -70.47869347769885, "lon": -70.88478237279998, "alt_km": 472.8612951105315, "timestamp": "2025-12-26T15:29:39.095860+00:00", "meta": {"OBJECT_NAME": "SKYSAT-C8", "OBJECT_ID": "2017-068D", "EPOCH": "2025-12-25T21:10:08.555808", "MEAN_MOTION": 15.33208945, "ECCENTRICITY": 9.45e-05, "INCLINATION": 97.4287, "RA_OF_ASC_NODE": 129.942, "ARG_OF_PERICENTER": 263.9401, "MEAN_ANOMALY": 96.1733, "EPHEMERIS_TYPE": 0, "CLASSIFICATION_TYPE": "U", "NORAD_CAT_ID": 42990, "ELEMENT_SET_NO": 999, "REV_AT_EPOCH": 45572, "BSTAR": 0.00035524, "MEAN_MOTION_DOT": 0.00011324, "MEAN_MOTION_DDOT": 0}, "tle": {"line1": "1 42990U 17068D   25359.88204347  .00011324  00000+0  35524-3 0  9998", "line2": "2 42990  97.4287 129.9420 0000945 263.9401  96.1733 15.33208945455725"}}, "geometry": {"type": "Point", "coordinates": [-70.88478237279998, -70.47869347769885]}}, {"type": "Feature", "properties": {"norad_id": 42991, "name": "SKYSAT-C7", "group": "resource", "lat": 75.33940533614272, "lon": 101.81752763149889, "alt_km": 458.8922408820581, "timestamp": "2025-12-26T15:29:39.095869+00:00", "meta": {"OBJECT_NAME": "SKYSAT-C7", "OBJECT_ID": "2017-068E", "EPOCH": "2025-12-26T07:19:25.068000", "MEAN_MOTION": 15.32614143, "ECCENTRICITY": 0.00067889, "INCLINATION": 97.4296, "RA_OF_ASC_NODE": 131.3973, "ARG_OF_PERICENTER": 13.531, "MEAN_ANOMALY": 346.6113, "EPHEMERIS_TYPE": 0, "CLASSIFICATION_TYPE": "U", "NORAD_CAT_ID": 42991, "ELEMENT_SET_NO": 999, "REV_AT_EPOCH": 45585, "BSTAR": 0.00036826425, "MEAN_MOTION_DOT": 0.00011532, "MEAN_MOTION_DDOT": 0}, "tle": {"line1": "1 42991U 17068E   25360.30515125  .00011532  00000+0  36826-3 0  9994", "line2": "2 42991  97.4296 131.3973 0006788  13.5310 346.6113 15.32614143455854"}}, "geometry": {"type": "Point", "coordinates": [101.81752763149889, 75.33940533614272]}}, {"type": "Feature", "properties": {"norad_id": 42992, "name": "SKYSAT-C6", "group": "resource", "lat": 27.449761958402824, "lon": -43.94547311190403, "alt_km": 470.50555904956855, "timestamp": "2025-12-26T15:29:39.095880+00:00", "meta": {"OBJECT_NAME": "SKYSAT-C6", "OBJECT_ID": "2017-068F", "EPOCH": "2025-12-25T20:01:06.090528", "MEAN_MOTION": 15.31757076, "ECCENTRICITY": 0.00047376, "INCLINATION": 97.4326, "RA_OF_ASC_NODE": 131.3522, "ARG_OF_PERICENTER": 46.8398, "MEAN_ANOMALY": 313.3239, "EPHEMERIS_TYPE": 0, "CLASSIFICATION_TYPE": "U", "NORAD_CAT_ID": 42992, "ELEMENT_SET_NO": 999, "REV_AT_EPOCH": 45576, "BSTAR": 0.00037471515, "MEAN_MOTION_DOT": 0.0001142, "MEAN_MOTION_DDOT": 0}, "tle": {"line1": "1 42992U 17068F   25359.83409827  .00011420  00000+0  37472-3 0  9996", "line2": "2 42992  97.4326 131.3522 0004737  46.8398 313.3239 15.31757076455768"}}, "geometry": {"type": "Point", "coordinates": [-43.94547311190403, 27.449761958402824]}}, {"type": "Feature", "properties": {"norad_id": 43111, "name": "CARTOSAT-2F", "group": "resource", "lat": -0.21238855076288177, "lon": 58.08446111515141, "alt_km": 511.57057916142276, "timestamp": "2025-12-26T15:29:39.095889+00:00", "meta": {"OBJECT_NAME": "CARTOSAT-2F", "OBJECT_ID": "2018-004A", "EPOCH": "2025-12-26T06:00:38.745216", "MEAN_MOTION": 15.19254596, "ECCENTRICITY": 0.00015539, "INCLINATION": 97.4293, "RA_OF_ASC_NODE": 57.6681, "ARG_OF_PERICENTER": 111.8418, "MEAN_ANOMALY": 248.2982, "EPHEMERIS_TYPE": 0, "CLASSIFICATION_TYPE": "U", "NORAD_CAT_ID": 43111, "ELEMENT_SET_NO": 999, "REV_AT_EPOCH": 44107, "BSTAR": 0.00027198855, "MEAN_MOTION_DOT": 5.666e-05, "MEAN_MOTION_DDOT": 0}, "tle": {"line1": "1 43111U 18004A   25360.25044844  .00005666  00000+0  27199-3 0  9993", "line2": "2 43111  97.4293  57.6681 0001553 111.8418 248.2982 15.19254596441075"}}, "geometry": {"type": "Point", "coordinates": [58.08446111515141, -0.21238855076288177]}}, {"type": "Feature", "properties": {"norad_id": 43259, "name": "GAOFEN-1 02", "group": "resource", "lat": 33.070858167666636, "lon": -116.25491031112692, "alt_km": 636.7764937648426, "timestamp": "2025-12-26T15:29:39.095899+00:00", "meta": {"OBJECT_NAME": "GAOFEN-1 02", "OBJECT_ID": "2018-031A", "EPOCH": "2025-12-26T06:42:01.672128", "MEAN_MOTION": 14.76444601, "ECCENTRICITY": 0.00027126, "INCLINATION": 98.0784, "RA_OF_ASC_NODE": 58.072, "ARG_OF_PERICENTER": 167.9443, "MEAN_ANOMALY": 192.1831, "EPHEMERIS_TYPE": 0, "CLASSIFICATION_TYPE": "U", "NORAD_CAT_ID": 43259, "ELEMENT_SET_NO": 999, "REV_AT_EPOCH": 41718, "BSTAR": 0.00022564593, "MEAN_MOTION_DOT": 1.518e-05, "MEAN_MOTION_DDOT": 0}, "tle": {"line1": "1 43259U 18031A   25360.27918602  .00001518  00000+0  22565-3 0  9994", "line2": "2 43259  98.0784  58.0720 0002712 167.9443 192.1831 14.76444601417182"}}, "geometry": {"type": "Point", "coordinates": [-116.25491031112692, 33.070858167666636]}}, {"type": "Feature", "properties": {"norad_id": 43260, "name": "GAOFEN-1 03", "group": "resource", "lat": -79.08151860494638, "lon": -169.09808342234913, "alt_km": 646.8336382138132, "timestamp": "2025-12-26T15:29:39.095909+00:00", "meta": {"OBJECT_NAME": "GAOFEN-1 03", "OBJECT_ID": "2018-031B", "EPOCH": "2025-12-26T06:10:31.736928", "MEAN_MOTION": 14.76426035, "ECCENTRICITY": 0.00016445, "INCLINATION": 98.078, "RA_OF_ASC_NODE": 57.9261, "ARG_OF_PERICENTER": 252.6735, "MEAN_ANOMALY": 107.4295, "EPHEMERIS_TYPE": 0, "CLASSIFICATION_TYPE": "U", "NORAD_CAT_ID": 43260, "ELEMENT_SET_NO": 999, "REV_AT_EPOCH": 41717, "BSTAR": 0.00016521888, "MEAN_MOTION_DOT": 1.097e-05, "MEAN_MOTION_DDOT": 0}, "tle": {"line1": "1 43260U 18031B   25360.25731177  .00001097  00000+0  16522-3 0  9992", "line2": "2 43260  98.0780  57.9261 0001644 252.6735 107.4295 14.76426035417170"}}, "geometry": {"type": "Point", "coordinates": [-169.09808342234913, -79.08151860494638]}}, {"type": "Feature", "properties": {"norad_id": 43262, "name": "GAOFEN-1 04", "group": "resource", "lat": 31.09479226094636, "lon": 53.57067032320287, "alt_km": 638.6261829587129, "timestamp": "2025-12-26T15:29:39.095919+00:00", "meta": {"OBJECT_NAME": "GAOFEN-1 04", "OBJECT_ID": "2018-031D", "EPOCH": "2025-12-26T07:13:10.712352", "MEAN_MOTION": 14.76433333, "ECCENTRICITY": 4.949e-05, "INCLINATION": 98.0785, "RA_OF_ASC_NODE": 58.14, "ARG_OF_PERICENTER": 66.2308, "MEAN_ANOMALY": 293.8954, "EPHEMERIS_TYPE": 0, "CLASSIFICATION_TYPE": "U", "NORAD_CAT_ID": 43262, "ELEMENT_SET_NO": 999, "REV_AT_EPOCH": 41717, "BSTAR": 0.00013762747, "MEAN_MOTION_DOT": 9.05e-06, "MEAN_MOTION_DDOT": 0}, "tle": {"line1": "1 43262U 18031D   25360.30081843  .00000905  00000+0  13763-3 0  9999", "line2": "2 43262  98.0785  58.1400 0000494  66.2308 293.8954 14.76433333417173"}}, "geometry": {"type": "Point", "coordinates": [53.57067032320287, 31.09479226094636]}}]}